{"fetched_at":"2026-07-19T17:31:36.159Z","source":"https://celestrak.org/NORAD/elements/gp.php?NAME=HULIANWANG&FORMAT=JSON","constellation":"guowang","records":[{"OBJECT_NAME":"HULIANWANG DIGUI-76","OBJECT_ID":"2025-187D","EPOCH":"2026-07-19T06:20:29.676768","CLASSIFICATION_TYPE":"U","MEAN_MOTION":13.2932398,"ECCENTRICITY":0.00000914,"INCLINATION":50.0013,"RA_OF_ASC_NODE":90.9504,"ARG_OF_PERICENTER":50.0288,"MEAN_ANOMALY":310.0592,"EPHEMERIS_TYPE":0,"NORAD_CAT_ID":65308,"ELEMENT_SET_NO":999,"REV_AT_EPOCH":4396,"BSTAR":0.000066074552,"MEAN_MOTION_DOT":-9.3e-7,"MEAN_MOTION_DDOT":0},{"OBJECT_NAME":"HULIANWANG DIGUI-77","OBJECT_ID":"2025-187E","EPOCH":"2026-07-19T06:08:19.045536","CLASSIFICATION_TYPE":"U","MEAN_MOTION":13.29323861,"ECCENTRICITY":0.00001308,"INCLINATION":50.0048,"RA_OF_ASC_NODE":90.9953,"ARG_OF_PERICENTER":187.6872,"MEAN_ANOMALY":172.3998,"EPHEMERIS_TYPE":0,"NORAD_CAT_ID":65309,"ELEMENT_SET_NO":999,"REV_AT_EPOCH":4396,"BSTAR":0.000048912016,"MEAN_MOTION_DOT":-0.00000101,"MEAN_MOTION_DDOT":0},{"OBJECT_NAME":"HULIANWANG DIGUI-78","OBJECT_ID":"2025-187F","EPOCH":"2026-07-19T06:56:36.042720","CLASSIFICATION_TYPE":"U","MEAN_MOTION":13.29322843,"ECCENTRICITY":0.00000908,"INCLINATION":50.0113,"RA_OF_ASC_NODE":90.6807,"ARG_OF_PERICENTER":353.5442,"MEAN_ANOMALY":6.543,"EPHEMERIS_TYPE":0,"NORAD_CAT_ID":65310,"ELEMENT_SET_NO":999,"REV_AT_EPOCH":4397,"BSTAR":0.000055004373,"MEAN_MOTION_DOT":-9.9e-7,"MEAN_MOTION_DDOT":0},{"OBJECT_NAME":"HULIANWANG DIGUI-79","OBJECT_ID":"2025-187G","EPOCH":"2026-07-19T06:32:26.404512","CLASSIFICATION_TYPE":"U","MEAN_MOTION":13.29319704,"ECCENTRICITY":0.00001204,"INCLINATION":50.0043,"RA_OF_ASC_NODE":91.0694,"ARG_OF_PERICENTER":339.7163,"MEAN_ANOMALY":20.3705,"EPHEMERIS_TYPE":0,"NORAD_CAT_ID":65311,"ELEMENT_SET_NO":999,"REV_AT_EPOCH":4396,"BSTAR":0.000056509549,"MEAN_MOTION_DOT":-9.8e-7,"MEAN_MOTION_DDOT":0},{"OBJECT_NAME":"HULIANWANG DIGUI-80","OBJECT_ID":"2025-187H","EPOCH":"2026-07-19T05:56:19.044096","CLASSIFICATION_TYPE":"U","MEAN_MOTION":13.29322989,"ECCENTRICITY":0.00001266,"INCLINATION":50.0033,"RA_OF_ASC_NODE":90.9155,"ARG_OF_PERICENTER":185.0755,"MEAN_ANOMALY":175.0116,"EPHEMERIS_TYPE":0,"NORAD_CAT_ID":65312,"ELEMENT_SET_NO":999,"REV_AT_EPOCH":4396,"BSTAR":0.000054329795,"MEAN_MOTION_DOT":-9.9e-7,"MEAN_MOTION_DDOT":0},{"OBJECT_NAME":"HULIANWANG DIGUI-81","OBJECT_ID":"2025-187J","EPOCH":"2026-07-19T05:32:23.085600","CLASSIFICATION_TYPE":"U","MEAN_MOTION":13.29319731,"ECCENTRICITY":0.00000826,"INCLINATION":50.0073,"RA_OF_ASC_NODE":90.9332,"ARG_OF_PERICENTER":343.7686,"MEAN_ANOMALY":16.3184,"EPHEMERIS_TYPE":0,"NORAD_CAT_ID":65313,"ELEMENT_SET_NO":999,"REV_AT_EPOCH":4397,"BSTAR":0.000054327445,"MEAN_MOTION_DOT":-9.9e-7,"MEAN_MOTION_DDOT":0},{"OBJECT_NAME":"HULIANWANG DIGUI-82","OBJECT_ID":"2025-220A","EPOCH":"2026-07-19T01:05:47.003424","CLASSIFICATION_TYPE":"U","MEAN_MOTION":13.24409714,"ECCENTRICITY":0.00022172,"INCLINATION":86.4952,"RA_OF_ASC_NODE":33.0977,"ARG_OF_PERICENTER":99.2393,"MEAN_ANOMALY":260.8992,"EPHEMERIS_TYPE":0,"NORAD_CAT_ID":65817,"ELEMENT_SET_NO":999,"REV_AT_EPOCH":3913,"BSTAR":-0.000003000969,"MEAN_MOTION_DOT":1.3e-7,"MEAN_MOTION_DDOT":0},{"OBJECT_NAME":"HULIANWANG DIGUI-83","OBJECT_ID":"2025-220B","EPOCH":"2026-07-19T06:21:22.030848","CLASSIFICATION_TYPE":"U","MEAN_MOTION":13.24409928,"ECCENTRICITY":0.00022425,"INCLINATION":86.4975,"RA_OF_ASC_NODE":33.0837,"ARG_OF_PERICENTER":98.3083,"MEAN_ANOMALY":261.8305,"EPHEMERIS_TYPE":0,"NORAD_CAT_ID":65818,"ELEMENT_SET_NO":999,"REV_AT_EPOCH":3916,"BSTAR":0.000022861701,"MEAN_MOTION_DOT":2.4e-7,"MEAN_MOTION_DDOT":0},{"OBJECT_NAME":"HULIANWANG DIGUI-84","OBJECT_ID":"2025-220C","EPOCH":"2026-07-19T00:44:03.984288","CLASSIFICATION_TYPE":"U","MEAN_MOTION":13.24409749,"ECCENTRICITY":0.00021829,"INCLINATION":86.4912,"RA_OF_ASC_NODE":32.9718,"ARG_OF_PERICENTER":98.8958,"MEAN_ANOMALY":261.2423,"EPHEMERIS_TYPE":0,"NORAD_CAT_ID":65819,"ELEMENT_SET_NO":999,"REV_AT_EPOCH":3913,"BSTAR":0.000028900368,"MEAN_MOTION_DOT":2.7e-7,"MEAN_MOTION_DDOT":0},{"OBJECT_NAME":"HULIANWANG DIGUI-85","OBJECT_ID":"2025-220D","EPOCH":"2026-07-19T05:59:33.395712","CLASSIFICATION_TYPE":"U","MEAN_MOTION":13.24408663,"ECCENTRICITY":0.00021709,"INCLINATION":86.4973,"RA_OF_ASC_NODE":33.0714,"ARG_OF_PERICENTER":100.9128,"MEAN_ANOMALY":259.2251,"EPHEMERIS_TYPE":0,"NORAD_CAT_ID":65820,"ELEMENT_SET_NO":999,"REV_AT_EPOCH":3916,"BSTAR":0.000026213783,"MEAN_MOTION_DOT":2.6e-7,"MEAN_MOTION_DDOT":0},{"OBJECT_NAME":"HULIANWANG DIGUI-86","OBJECT_ID":"2025-220E","EPOCH":"2026-07-19T02:11:17.538144","CLASSIFICATION_TYPE":"U","MEAN_MOTION":13.24411465,"ECCENTRICITY":0.00020452,"INCLINATION":86.4952,"RA_OF_ASC_NODE":33.0558,"ARG_OF_PERICENTER":84.9248,"MEAN_ANOMALY":275.212,"EPHEMERIS_TYPE":0,"NORAD_CAT_ID":65821,"ELEMENT_SET_NO":999,"REV_AT_EPOCH":3914,"BSTAR":0.000013144452,"MEAN_MOTION_DOT":2e-7,"MEAN_MOTION_DDOT":0},{"OBJECT_NAME":"HULIANWANG DIGUI-87","OBJECT_ID":"2025-231A","EPOCH":"2026-07-19T00:59:18.842784","CLASSIFICATION_TYPE":"U","MEAN_MOTION":13.29328307,"ECCENTRICITY":0.0000474,"INCLINATION":50.0009,"RA_OF_ASC_NODE":61.5858,"ARG_OF_PERICENTER":6.4499,"MEAN_ANOMALY":353.6379,"EPHEMERIS_TYPE":0,"NORAD_CAT_ID":65995,"ELEMENT_SET_NO":999,"REV_AT_EPOCH":3712,"BSTAR":0.000050832224,"MEAN_MOTION_DOT":-0.000001,"MEAN_MOTION_DDOT":0},{"OBJECT_NAME":"HULIANWANG DIGUI-88","OBJECT_ID":"2025-231B","EPOCH":"2026-07-19T01:11:23.581536","CLASSIFICATION_TYPE":"U","MEAN_MOTION":13.29323871,"ECCENTRICITY":0.00004904,"INCLINATION":49.9996,"RA_OF_ASC_NODE":61.6022,"ARG_OF_PERICENTER":349.152,"MEAN_ANOMALY":10.9341,"EPHEMERIS_TYPE":0,"NORAD_CAT_ID":65996,"ELEMENT_SET_NO":999,"REV_AT_EPOCH":3712,"BSTAR":0.000049172496,"MEAN_MOTION_DOT":-0.00000101,"MEAN_MOTION_DDOT":0},{"OBJECT_NAME":"HULIANWANG DIGUI-89","OBJECT_ID":"2025-231C","EPOCH":"2026-07-18T21:10:44.465376","CLASSIFICATION_TYPE":"U","MEAN_MOTION":13.29328171,"ECCENTRICITY":0.00005327,"INCLINATION":49.9972,"RA_OF_ASC_NODE":62.0062,"ARG_OF_PERICENTER":355.9156,"MEAN_ANOMALY":4.1712,"EPHEMERIS_TYPE":0,"NORAD_CAT_ID":65997,"ELEMENT_SET_NO":999,"REV_AT_EPOCH":3710,"BSTAR":0.000048851916,"MEAN_MOTION_DOT":-0.00000101,"MEAN_MOTION_DDOT":0},{"OBJECT_NAME":"HULIANWANG DIGUI-90","OBJECT_ID":"2025-231D","EPOCH":"2026-07-18T22:47:04.611552","CLASSIFICATION_TYPE":"U","MEAN_MOTION":13.29326558,"ECCENTRICITY":0.00005267,"INCLINATION":50.0002,"RA_OF_ASC_NODE":61.7566,"ARG_OF_PERICENTER":350.1826,"MEAN_ANOMALY":9.9036,"EPHEMERIS_TYPE":0,"NORAD_CAT_ID":65998,"ELEMENT_SET_NO":999,"REV_AT_EPOCH":3711,"BSTAR":0.0000404509,"MEAN_MOTION_DOT":-0.00000105,"MEAN_MOTION_DDOT":0},{"OBJECT_NAME":"HULIANWANG DIGUI-91","OBJECT_ID":"2025-231E","EPOCH":"2026-07-18T20:46:46.906752","CLASSIFICATION_TYPE":"U","MEAN_MOTION":13.29327191,"ECCENTRICITY":0.00005019,"INCLINATION":50.002,"RA_OF_ASC_NODE":62.0257,"ARG_OF_PERICENTER":351.6755,"MEAN_ANOMALY":8.4109,"EPHEMERIS_TYPE":0,"NORAD_CAT_ID":65999,"ELEMENT_SET_NO":999,"REV_AT_EPOCH":3710,"BSTAR":0.00003614108,"MEAN_MOTION_DOT":-0.00000107,"MEAN_MOTION_DDOT":0}]}
