HULIANWANG DIGUI-76     
1 65308U 25187D   26200.26423237 -.00000093  00000+0  66075-4 0  9994
2 65308  50.0013  90.9504 0000091  50.0288 310.0592 13.29323980 43965
HULIANWANG DIGUI-77     
1 65309U 25187E   26200.25577599 -.00000101  00000+0  48912-4 0  9995
2 65309  50.0048  90.9953 0000130 187.6872 172.3998 13.29323861 43969
HULIANWANG DIGUI-78     
1 65310U 25187F   26200.28930605 -.00000099  00000+0  55004-4 0  9997
2 65310  50.0113  90.6807 0000090 353.5442   6.5430 13.29322843 43970
HULIANWANG DIGUI-79     
1 65311U 25187G   26200.27252783 -.00000098  00000+0  56510-4 0  9993
2 65311  50.0043  91.0694 0000120 339.7163  20.3705 13.29319704 43962
HULIANWANG DIGUI-80     
1 65312U 25187H   26200.24744264 -.00000099  00000+0  54330-4 0  9990
2 65312  50.0033  90.9155 0000126 185.0755 175.0116 13.29322989 43960
HULIANWANG DIGUI-81     
1 65313U 25187J   26200.23082275 -.00000099  00000+0  54327-4 0  9993
2 65313  50.0073  90.9332 0000082 343.7686  16.3184 13.29319731 43973
HULIANWANG DIGUI-82     
1 65817U 25220A   26200.04568291  .00000013  00000+0 -30010-5 0  9996
2 65817  86.4952  33.0977 0002217  99.2393 260.8992 13.24409714 39136
HULIANWANG DIGUI-83     
1 65818U 25220B   26200.26483832  .00000024  00000+0  22862-4 0  9994
2 65818  86.4975  33.0837 0002242  98.3083 261.8305 13.24409928 39160
HULIANWANG DIGUI-84     
1 65819U 25220C   26200.03060167  .00000027  00000+0  28900-4 0  9994
2 65819  86.4912  32.9718 0002182  98.8958 261.2423 13.24409749 39130
HULIANWANG DIGUI-85     
1 65820U 25220D   26200.24969208  .00000026  00000+0  26214-4 0  9998
2 65820  86.4973  33.0714 0002170 100.9128 259.2251 13.24408663 39161
HULIANWANG DIGUI-86     
1 65821U 25220E   26200.09117521  .00000020  00000+0  13144-4 0  9997
2 65821  86.4952  33.0558 0002045  84.9248 275.2120 13.24411465 39145
HULIANWANG DIGUI-87     
1 65995U 25231A   26200.04119031 -.00000100  00000+0  50832-4 0  9999
2 65995  50.0009  61.5858 0000474   6.4499 353.6379 13.29328307 37127
HULIANWANG DIGUI-88     
1 65996U 25231B   26200.04957849 -.00000101  00000+0  49172-4 0  9993
2 65996  49.9996  61.6022 0000490 349.1520  10.9341 13.29323871 37127
HULIANWANG DIGUI-89     
1 65997U 25231C   26199.88245909 -.00000101  00000+0  48852-4 0  9994
2 65997  49.9972  62.0062 0000532 355.9156   4.1712 13.29328171 37101
HULIANWANG DIGUI-90     
1 65998U 25231D   26199.94935893 -.00000105  00000+0  40451-4 0  9991
2 65998  50.0002  61.7566 0000526 350.1826   9.9036 13.29326558 37118
HULIANWANG DIGUI-91     
1 65999U 25231E   26199.86582068 -.00000107  00000+0  36141-4 0  9998
2 65999  50.0020  62.0257 0000501 351.6755   8.4109 13.29327191 37108
